[{"OBJECT_NAME":"JILIN-1 GAOFEN 03D47","OBJECT_ID":"2022-167L","EPOCH":"2026-03-09T22:56:46.924224","MEAN_MOTION":15.31686941,"ECCENTRICITY":0.00089304,"INCLINATION":97.6835,"RA_OF_ASC_NODE":234.6581,"ARG_OF_PERICENTER":110.4031,"MEAN_ANOMALY":249.8169,"EPHEMERIS_TYPE":0,"CLASSIFICATION_TYPE":"U","NORAD_CAT_ID":54692,"ELEMENT_SET_NO":999,"REV_AT_EPOCH":18014,"BSTAR":0.00047294748,"MEAN_MOTION_DOT":0.00014417,"MEAN_MOTION_DDOT":0},{"OBJECT_NAME":"STARLINK-32734","OBJECT_ID":"2024-254Q","EPOCH":"2026-03-09T05:56:12.140736","MEAN_MOTION":15.27593191,"ECCENTRICITY":0.00015942,"INCLINATION":43.004,"RA_OF_ASC_NODE":19.0143,"ARG_OF_PERICENTER":252.3822,"MEAN_ANOMALY":107.6856,"EPHEMERIS_TYPE":0,"CLASSIFICATION_TYPE":"U","NORAD_CAT_ID":62476,"ELEMENT_SET_NO":999,"REV_AT_EPOCH":6758,"BSTAR":0.0014176925,"MEAN_MOTION_DOT":0.00038972,"MEAN_MOTION_DDOT":0}]
